CUTE-1.7+APD II (CO-65) 
1 32785U 08021C   22244.66734684  .00001497  00000+0  16150-3 0  9990
2 32785  97.6645 213.1384 0012254 349.0617  11.0332 14.89800685777831
AAUSAT-II               
1 32788U 08021F   22244.86697369  .00001656  00000+0  14507-3 0  9994
2 32788  97.5394 227.5241 0009771 220.5718 139.4777 14.97967600779874
DELFI-C3 (DO-64)        
1 32789U 08021G   22244.85838936  .00006978  00000+0  37424-3 0  9996
2 32789  97.3366 268.4584 0011724  66.4406 293.8057 15.15208292783493
SEEDS II (CO-66)        
1 32791U 08021J   22244.38619578  .00001353  00000+0  13541-3 0  9992
2 32791  97.6183 218.2800 0011165 301.5857  58.4272 14.92978155778520
SWISSCUBE               
1 35932U 09051B   22244.40370608  .00000308  00000+0  79572-4 0  9993
2 35932  98.5599 102.4341 0007589 165.1610 194.9811 14.56938703687159
BEESAT-1                
1 35933U 09051C   22244.42686776  .00000261  00000+0  68916-4 0  9990
2 35933  98.5537 104.0343 0005565 174.7470 185.3787 14.56945668687237
ITUPSAT1                
1 35935U 09051E   22244.83449920  .00000226  00000+0  62388-4 0  9993
2 35935  98.5637 104.4883 0007801 180.5291 179.5899 14.56048953686996
TISAT 1                 
1 36799U 10035E   22244.85350145  .00001029  00000+0  10448-3 0  9999
2 36799  98.1752  98.2953 0011133 198.8078 161.2730 14.93163536659162
M-CUBED & EXP-1 PRIME   
1 37855U 11061F   22244.42695752  .00009438  00000+0  40499-3 0  9993
2 37855 101.7199  43.8224 0150566 194.6156 165.0683 15.13429614592726
AEROCUBE 4.5A           
1 38767U 12048K   22245.17474617  .00002008  00000+0  14882-3 0  9993
2 38767  64.6637 229.8270 0172002 241.6938 116.6731 14.95292137162254
AEROCUBE 4.5B           
1 38768U 12048L   22244.80953614  .00002685  00000+0  17695-3 0  9998
2 38768  64.6656 183.7503 0158065 237.1779 121.4033 15.00220611162602
STRAND-1                
1 39090U 13009E   22244.77289693  .00000124  00000+0  58250-4 0  9999
2 39090  98.4019  80.9081 0009994  49.0849 311.1201 14.35318924498342
BRITE-AUSTRIA           
1 39091U 13009F   22245.10732193  .00000039  00000+0  28499-4 0  9993
2 39091  98.4037  80.4136 0011477  53.8322 306.3924 14.35294778498435
SOMP                    
1 39134U 13015E   22244.87414942  .00009495  00000+0  32445-3 0  9990
2 39134  64.8608 170.7471 0035339 268.0568  91.6517 15.30210113518548
BEESAT-3                
1 39135U 13015F   22244.88159445  .00007051  00000+0  28279-3 0  9992
2 39135  64.8649 208.6787 0039448 272.9885  86.6731 15.25068878517764
BEESAT-2                
1 39136U 13015G   22245.17741191  .00006153  00000+0  25960-3 0  9997
2 39136  64.8735 216.3398 0021374 295.6971  64.1951 15.24007213518088
NEE-01 PEGASO           
1 39151U 13018B   22244.85701220  .00000606  00000+0  84890-4 0  9995
2 39151  97.9954 350.2810 0016904  12.3654 347.7970 14.81082491504996
ESTCUBE 1               
1 39161U 13021C   22245.04691252  .00000468  00000+0  80388-4 0  9999
2 39161  97.9061 320.2840 0009149 167.3187 192.8247 14.73063067500745
POPACS 1                
1 39268U 13055D   22244.49822287  .00015803  00000+0  39695-3 0  9999
2 39268  80.9981 157.5953 0562025 330.6778  26.3915 14.52712182464333
POPACS 2                
1 39269U 13055E   22244.87606418  .00005119  00000+0  13757-3 0  9998
2 39269  81.0112 216.2960 0644346 122.6509 243.8539 14.33803070461130
POPACS 3                
1 39270U 13055F   22244.42259772  .00003563  00000+0  10826-3 0  9993
2 39270  81.0115 250.9961 0685844 220.8114 133.9746 14.22519127439434
ZACUBE-1 (TSHEPISOSAT)  
1 39417U 13066B   22244.90913822  .00000806  00000+0  10380-3 0  9996
2 39417  97.6435 212.9920 0058222 152.4597 207.9723 14.82540082474455
WNISAT-1                
1 39423U 13066H   22245.11884956  .00000236  00000+0  56486-4 0  9997
2 39423  97.7417 120.9111 0172830 258.3740  99.8006 14.53552367465584
TRITON-1                
1 39427U 13066M   22245.09805957  .00001090  00000+0  17649-3 0  9998
2 39427  97.8139 177.5694 0112300  20.4641 340.1011 14.69120133470222
DELFI-N3XT              
1 39428U 13066N   22245.07209381  .00001786  00000+0  27920-3 0  9991
2 39428  97.8145 176.1485 0118046  33.4839 327.3759 14.69422842469966
GOMX-1                  
1 39430U 13066Q   22244.99343306  .00000435  00000+0  85886-4 0  9996
2 39430  97.8026 147.8051 0149095 163.0423 197.5852 14.60320705467468
CUBEBUG-2 (LO-74)       
1 39440U 13066AA  22245.13813769  .00000770  00000+0  11081-3 0  9996
2 39440  97.7320 199.5036 0076950 242.2720 117.0670 14.77208671472805
NEE-02 KRYSAOR          
1 39441U 13066AB  22244.86859702  .00000499  00000+0  76617-4 0  9998
2 39441  97.7428 196.3854 0078809 257.5201 101.7183 14.75887630471305
FUNCUBE-1 (AO-73)       
1 39444U 13066AE  22244.86908118  .00000979  00000+0  12148-3 0  9998
2 39444  97.6315 215.3705 0057346 140.4362 220.1060 14.83659140472853
UWE-3                   
1 39446U 13066AG  22244.82459675  .00000656  00000+0  90775-4 0  9990
2 39446  97.6922 205.6236 0067756 199.0567 160.8109 14.79762828471758
AEROCUBE 5A             
1 39465U 13072D   22244.84611047  .00046595  00000+0  24257-2 0  9995
2 39465 120.4851 238.6183 0187689   2.0523 358.1281 15.01696356161077
AEROCUBE 5B             
1 39466U 13072E   22245.07839032  .00089881  00000+0  24086-2 0  9993
2 39466 120.4536 336.4986 0117542  21.5943 339.0041 15.30590439162406
BRITE-CA1 (TORONTO)     
1 40020U 14033L   22245.14673263  .00000239  00000+0  48511-4 0  9990
2 40020  97.7881  40.2429 0087178  19.8123 340.6433 14.67115809439016
DUCHIFAT-1              
1 40021U 14033M   22244.87399264  .00001941  00000+0  19111-3 0  9990
2 40021  98.0175 196.5025 0013257 142.1140 218.1014 14.93240678446104
NANOSATC-BR1            
1 40024U 14033Q   22244.80549748  .00001621  00000+0  16543-3 0  9991
2 40024  97.9891 189.3934 0012478 148.6916 211.5047 14.92029462445360
QB50P1                  
1 40025U 14033R   22244.78159182  .00001285  00000+0  13658-3 0  9998
2 40025  97.9622 182.7974 0012506 158.7690 201.4049 14.90753942445137
QB50P2                  
1 40032U 14033Y   22244.36692044  .00001219  00000+0  13168-3 0  9992
2 40032  97.9383 177.4694 0011941 157.7184 202.4555 14.90160974444924
PERSEUS-M2              
1 40037U 14033AD  22244.74076567  .00000593  00000+0  72013-4 0  9994
2 40037  97.8935 166.5302 0014053 181.6890 178.4280 14.87204621444463
PERSEUS-M1              
1 40039U 14033AF  22244.35185280  .00000439  00000+0  55430-4 0  9999
2 40039  97.8831 163.7649 0013898 182.0108 178.1054 14.86809869444286
POLYITAN-1              
1 40042U 14033AJ  22244.79343346  .00001532  00000+0  16129-3 0  9996
2 40042  97.9729 184.1066 0014794 151.8424 208.3596 14.90826408445021
TIGRISAT                
1 40043U 14033AK  22245.08442772  .00000474  00000+0  75820-4 0  9991
2 40043  97.6576  70.2190 0057654 268.2287  91.2319 14.75122593441221
AEROCUBE 6A             
1 40045U 14033AM  22244.77855564  .00000482  00000+0  74614-4 0  9994
2 40045  97.6645  78.9369 0055212 256.4647 103.0409 14.76515263441043
AEROCUBE 6B             
1 40046U 14033AN  22245.07507166  .00001008  00000+0  14692-3 0  9995
2 40046  97.6563  77.6451 0054204 253.3968 106.1286 14.76934706441474
UKUBE-1                 
1 40074U 14037F   22245.13915184  .00001061  00000+0  12945-3 0  9998
2 40074  98.3710 129.7890 0005438  49.9516 310.2165 14.85610365441450
BRITE-PL2 (HEWELIUSZ)   
1 40119U 14049B   22245.21582902  .00000525  00000+0  67453-4 0  9997
2 40119  97.8844 340.0622 0016970 355.9202   4.1872 14.85249599435496
FIREBIRD 4              
1 40378U 15003C   22244.60712359  .00013203  00000+0  37441-3 0  9998
2 40378  99.0882 126.8168 0097469 125.9304 235.1025 15.31711480420073
GRIFEX                  
1 40379U 15003D   22245.14923010  .00005735  00000+0  19929-3 0  9999
2 40379  99.1015 112.5287 0113083 169.1452 191.2260 15.24354808419319
CP10 (EXOCUBE)          
1 40380U 15003E   22244.83641119  .00004867  00000+0  18593-3 0  9994
2 40380  99.1123 104.5863 0121199 195.6626 164.0842 15.20660308418769
TIANWANG 1A (TW-1A)     
1 40928U 15051D   22245.13349660  .00041306  00000+0  40948-3 0  9993
2 40928  97.0338 267.4103 0009272 100.0731 330.8540 15.65650929390216
EXACTVIEW 9             
1 40936U 15052G   22244.87305454  .00001193  00000+0  75912-4 0  9996
2 40936   6.0040 348.0961 0010149 162.4398 197.6081 14.77261910374579
AEROCUBE 5C             
1 40965U 15058B   22244.35072120  .00000349  00000+0  57630-4 0  9997
2 40965  64.7759 221.0129 0183148 175.5867 184.6909 14.75810935160169
AEROCUBE 7              
1 40966U 15058C   22245.13249583  .00000534  00000+0  77458-4 0  9990
2 40966  64.7761 215.6282 0180956 174.9663 185.3319 14.76409887160303
ATHENOXAT 1             
1 41168U 15077C   22245.24128383  .00008892  00000+0  33968-3 0  9994
2 41168  14.9923 240.5539 0008349 245.4388 215.9568 15.22496153372024
GALASSIA                
1 41170U 15077E   22244.33497048  .00007591  00000+0  29393-3 0  9995
2 41170  14.9877 238.8104 0010659 255.1153 104.7988 15.21510189371797
VELOX-II                
1 41171U 15077F   22244.56493768  .00007030  00000+0  31334-3 0  9992
2 41171  14.9918 314.4540 0007701  91.1174 269.0030 15.16624627371244
HORYU-4                 
1 41340U 16012D   22245.05158246  .00001843  00000+0  12485-3 0  9996
2 41340  31.0033 229.8012 0013318 242.9258 117.0020 15.03666654359264
E-ST@R-II               
1 41459U 16025D   22245.14320926  .00005337  00000+0  22626-3 0  9997
2 41459  98.1925  56.0916 0141352   9.2752 351.1044 15.14942899349104
AAUSAT 4                
1 41460U 16025E   22245.06811541  .00009378  00000+0  34270-3 0  9995
2 41460  98.1851  62.9580 0119889 342.8502  16.8654 15.21754840349585
BEESAT-4                
1 41619U 16040W   22244.60068183  .00012265  00000+0  38873-3 0  9995
2 41619  97.2098 293.2608 0008903 192.4538 167.6486 15.32816875332383
